GLOBALSTAR M023         
1 25621U 99004A   25324.66057184 -.00000053  00000+0  28271-3 0  9992
2 25621  52.0117 296.9734 0010314 111.0563  60.5249 12.62509679235496
GLOBALSTAR M040         
1 25622U 99004B   25324.28689994 -.00000056  00000+0  26760-3 0  9995
2 25622  51.9929 302.4961 0001203  25.6875  83.9555 12.62023403234960
GLOBALSTAR M036         
1 25623U 99004C   25324.63038615  .00000007  00000+0  13066-2 0  9992
2 25623  51.9938 187.9655 0010822 355.3431  39.0921 11.86617457197550
GLOBALSTAR M038         
1 25624U 99004D   25324.46768031 -.00000067  00000+0  22765-3 0  9990
2 25624  51.9996 341.4986 0001899  24.8225 123.2293 12.32536063221643
GLOBALSTAR M022         
1 25649U 99012A   25324.45197933 -.00000068  00000+0  22905-3 0  9999
2 25649  52.0031 226.1004 0003229 106.8511  64.0137 12.02506703195172
GLOBALSTAR M041         
1 25650U 99012B   25324.66348640 -.00000093  00000+0 -94501-4 0  9998
2 25650  51.9996 111.7444 0000423 234.9599 125.1197 11.96680968197019
GLOBALSTAR M046         
1 25651U 99012C   25324.53704413  .00000035  00000+0  13615-2 0  9998
2 25651  52.0020 170.2960 0001654 172.1155 206.3612 12.09415316202582
GLOBALSTAR M037         
1 25652U 99012D   25324.72374382 -.00000066  00000+0  20814-3 0  9993
2 25652  52.0013  67.3394 0002506 159.5819   4.9055 12.62455545231048
